stk.v.4.3 

BEGIN Ephemeris 

NumberOfEpemerisPoints 7440
ScenarioEpoch 	2020-10-27 16:00:00
Central Body Earth
CoordinateSystem Inertial
EphemerisTimePosVel
15 1.98535900569210e+03 -1.47860006153257e+04 -2.20086431072347e+04 3.85181489062828e+00 3.71130410124300e-01 
15 1.41075288047878e+04 2.19105999858643e+04 -3.17312420070106e+03 -2.15020471552066e+00 -3.15413062293065e+00 
15 1.65167353798432e+04 -1.48302437269605e+04 -1.48690451738547e+04 6.47752205127027e-01 -2.29854747450674e+00 
15 -4.77925776299672e+03 -1.99208110473690e+04 -1.69889120655255e+04 2.40557377912842e+00 2.01976529879858e+00 
15 3.88237848196625e+03 2.12751959554199e+04 1.49612074650892e+04 -2.89418415348300e+00 2.37186382415558e+00 
15 -2.59107581095633e+03 -2.06189361309058e+04 1.61092818679262e+04 3.11051820329880e+00 2.04850546552257e+00 
15 -2.64306487771090e+04 1.06447850699782e+03 -4.09100226067916e+03 3.85263255151650e-01 -3.13401162603980e+00 
15 1.88392526884354e+04 1.74141065372080e+04 6.47556751567817e+03 -1.06516347970755e+00 -2.99014405553072e+00 
15 1.91983438712684e+04 5.51439063265262e+03 -1.74239664772859e+04 8.67815574555936e-01 1.97412560709937e+00 
15 -2.62129940544872e+04 1.33201162147008e+03 4.07229604057762e+03 3.71761579263431e-01 3.10021172737691e+00 
15 -5.85989782482874e+03 2.52458328363267e+04 -5.64217498133710e+03 -2.34474941246813e+00 3.08751799739852e+00 
15 -1.03782665999742e+04 2.45022845497838e+04 -2.14563015287034e+03 -1.98884120476169e+00 -3.10804228536919e+00 
15 -2.64560684742532e+04 3.45715506439965e+03 -1.21860380253067e+03 -1.35713077659862e-01 -3.17043160923386e+00 
15 -1.71202497362630e+04 1.15437386130696e+04 1.69475520025050e+04 -2.00976834262707e-01 2.01512995754083e+00 
15 -1.88020980642817e+04 1.27108128782568e+04 -1.38292526672905e+04 -2.70635925204041e+00 2.43207492382880e+00 
15 1.83588626891644e+03 1.51133444219610e+04 -2.17514425553832e+04 -3.84941465808783e+00 -1.80335883336138e-02 
15 -1.67048811416145e+04 -2.05647249556438e+04 1.40367682799625e+03 1.60841714719012e+00 -3.18288363088722e+00 
15 -8.78510901474699e+03 -1.56116024561256e+04 1.95784468168892e+04 2.11784943670437e+00 -1.39040976286071e+00 
15 1.99078418936894e+04 -1.01742025457636e+04 1.43021533408211e+04 2.57622799922025e+00 -2.40588930710958e+00 
15 -6.11571187917238e+03 1.47945076737249e+04 2.07404570987057e+04 -3.58893722018828e+00 4.06273448878232e-02 
15 -7.79562728282163e+03 -1.91559068870840e+04 1.64549120149899e+04 2.14115714664239e+00 -1.99346650035490e+00 
15 -1.02097705326345e+04 2.44963401649595e+04 3.00348041157373e+03 -2.11741813180182e+00 -3.16765814915973e+00 
15 -7.82148381664740e+03 -1.51481222244471e+04 -2.04507795110881e+04 2.35397525641921e+00 1.23423168070280e+00 
15 1.23951560331176e+04 -8.58355720026460e+03 -2.11182652684721e+04 2.52144675856356e+00 2.65362781324729e-01 
15 -5.61100360471056e+03 2.57279728488045e+04 -2.55916758405062e+03 -2.34385732916967e+00 3.09820270428665e+00 
15 2.64784092459507e+04 -2.16563931057913e+03 -1.60136010862668e+03 3.34859592030504e-01 3.20788139813303e+00 
15 1.22655106605589e+04 -8.61350229305132e+03 -2.12749718731942e+04 2.53831482031779e+00 2.31222938707220e-01 
15 2.16123223520430e+04 7.47497746824428e+03 1.39816088758985e+04 -2.22158448681820e+00 2.51074248643943e+00 
15 -1.97798175902758e+04 -8.31710991483301e+03 -1.53948756685131e+04 -3.82674261906491e-01 2.25039122741664e+00 
15 8.54021624558445e+03 -2.46957649555378e+04 -4.49723759187518e+03 2.25144181563253e+00 3.15177660930398e+00 
15 6.65653836878325e+03 -1.66832182626124e+04 1.93371377968392e+04 3.70019636463829e+00 -1.22765050537264e+00 
15 2.61357362669701e+03 -1.47885499784327e+04 -2.19418400902691e+04 3.84385399925202e+00 4.47210122523418e-01 
15 1.39921488492402e+04 2.19573550308247e+04 -3.34162350753526e+03 -2.16675291062901e+00 -3.15029401530957e+00 
15 1.71130935275121e+04 -9.04780935388610e+03 -1.84139727961088e+04 2.13051159850382e-02 -1.67856006699100e+00 
15 -4.51613241447706e+03 -2.01642936512618e+04 -1.67663528157125e+04 2.41630165467669e+00 2.05872254831978e+00 
15 3.74891434830904e+03 2.12220416239683e+04 1.50701627538936e+04 -2.89803829345045e+00 2.35669665259025e+00 
15 -2.44563812597099e+03 -2.05623633731303e+04 1.62046366586860e+04 3.11309898286503e+00 2.03194802446134e+00 
15 -2.63428000758628e+04 6.26454491778914e+02 -4.71488990527697e+03 4.94750941605927e-01 -3.11574232659222e+00 
15 1.87795916901967e+04 1.75380342320794e+04 6.30962021948712e+03 -1.08759777839296e+00 -2.99776860310067e+00 
15 1.92399978582811e+04 5.67097945743799e+03 -1.73276694519041e+04 8.47840768160527e-01 1.99218458560517e+00 
15 -2.59745184640559e+04 2.43702436257533e+02 5.52983066530120e+03 6.34821791027961e-01 3.05181009945378e+00 
15 -6.02408008892912e+03 2.52539430646559e+04 -5.42528094749933e+03 -2.33584460732817e+00 3.09581096966772e+00 
15 -1.08548016065210e+04 2.42167842387153e+04 -2.89902592151977e+03 -1.93481394256179e+00 -3.09520622990274e+00 
15 -2.64726233025334e+04 2.88286811063049e+03 -2.04771572753809e+03 9.28706846364413e-03 -3.16148335808330e+00 
15 -1.71526284186141e+04 1.09003411515592e+04 1.73337104374023e+04 -1.31089744236897e-01 1.94522574757558e+00 
15 -2.19759707398881e+04 1.07649500044927e+04 -1.04228474795893e+04 -2.13997870566898e+00 2.76895005849050e+00 
15 1.55265019694971e+03 1.51453898300302e+04 -2.17515158457574e+04 -3.85206876705108e+00 1.60405750282360e-02 
15 -1.66288748584890e+04 -2.06358780577001e+04 1.25401509531837e+03 1.62513943123353e+00 -3.18421689383549e+00 
15 -8.68513986417726e+03 -1.57494911325264e+04 1.95124882827724e+04 2.12662591755470e+00 -1.41004776801358e+00 
15 2.01254338450457e+04 -1.00361390460182e+04 1.40964114458940e+04 2.53992822637041e+00 -2.43163943102261e+00 
15 -6.29675307237336e+03 1.47136459366018e+04 2.07419224788276e+04 -3.58199136583863e+00 1.74143562178695e-02 
15 -7.68496994947450e+03 -1.92878407813260e+04 1.63516233511111e+04 2.14977764187566e+00 -2.01173508433610e+00 
15 -1.44534199408650e+04 2.18306552336832e+04 -4.36873007993934e+03 -1.50780392774994e+00 -3.13336741558727e+00 
15 1.63825645005608e+04 -1.82029784739861e+04 9.47212346192126e+03 9.87553719159447e-01 2.92025931471810e+00 
15 1.41630694039466e+04 -6.30157984789220e+03 -2.07949423927944e+04 2.29906407115006e+00 6.16313415753479e-01 
15 -5.76279623346415e+03 2.57151165835459e+04 -2.35807033690637e+03 -2.33591729299705e+00 3.10163542767646e+00 
15 2.65118985795322e+04 -1.93058418676231e+03 -1.24779035855416e+03 2.73136899938805e-01 3.21120003678876e+00 
15 1.23796194689578e+04 -8.47714667926203e+03 -2.12640631233540e+04 2.52575605121864e+00 2.52900158922284e-01 
15 2.12683228837204e+04 7.75831652297819e+03 1.43611394250341e+04 -2.28924816468658e+00 2.46601904501091e+00 
15 -1.98032501862960e+04 -8.51720499548786e+03 -1.52513301559545e+04 -3.55476662474037e-01 2.27144828799190e+00 
15 8.72364576617716e+03 -2.46747059018646e+04 -4.23928046070151e+03 2.23635145008140e+00 3.15941319777346e+00 
15 6.90719065847144e+03 -1.66833890612186e+04 1.92529018601663e+04 3.69022384288705e+00 -1.25602326741110e+00 
15 3.24902630177178e+03 -1.47826019448024e+04 -2.18614467476620e+04 3.83356494877821e+00 5.24086370169921e-01 
15 1.38763184233646e+04 2.20025626781337e+04 -3.50929192163107e+03 -2.18310769159735e+00 -3.14627350929759e+00 
15 1.65310703619916e+04 -2.31861551903474e+03 -2.08450813630250e+04 -6.40360202365299e-01 -9.06455706774024e-01 
15 -4.25457432267889e+03 -2.04002863246156e+04 -1.65419071238825e+04 2.42632477653349e+00 2.09678713050951e+00 
15 3.61531698530497e+03 2.11679163017981e+04 1.51783832420458e+04 -2.90175644798807e+00 2.34142434699957e+00 
15 -2.29991578426188e+03 -2.05047390105781e+04 1.62993237039751e+04 3.11553326924280e+00 2.01527474622133e+00 
15 -2.62312066215107e+04 1.80902251054787e+02 -5.34474470826340e+03 6.05541625984411e-01 -3.09454342707809e+00 
15 1.87189233226003e+04 1.76603373998250e+04 6.14388979314842e+03 -1.10987683500760e+00 -3.00516762686139e+00 
15 1.92807482793995e+04 5.82754390585301e+03 -1.72303343247109e+04 8.27789843592275e-01 2.01017281231625e+00 
15 -2.56007523806842e+04 -8.74766890583685e+02 6.99868539227103e+03 9.01823522716713e-01 2.98695032597404e+00 
15 -6.18662304927986e+03 2.52593726882596e+04 -5.20915841621645e+03 -2.32675060523765e+00 3.10373103574777e+00 
15 -1.13099439338558e+04 2.39071282424835e+04 -3.63576515320602e+03 -1.87940292259545e+00 -3.07886950131882e+00 
15 -2.64504393451758e+04 2.29355534882736e+03 -2.88936082332098e+03 1.57013196827434e-01 -3.14770225338566e+00 
15 -1.71711823796154e+04 1.02583439991875e+04 1.77004762316480e+04 -6.21591212542464e-02 1.87486849208124e+00 
15 -2.44521838299771e+04 8.30975326386786e+03 -6.45041332410007e+03 -1.46525895390454e+00 3.01418931573691e+00 
15 1.26735447832807e+03 1.51758853936339e+04 -2.17490584523194e+04 -3.85429215897369e+00 5.03379570678499e-02 
15 -1.65520737489038e+04 -2.07060673133784e+04 1.10427384688864e+03 1.64178731253490e+00 -3.18540011790395e+00 
15 -8.58479336478327e+03 -1.58865885909833e+04 1.94456288249271e+04 2.13529886864477e+00 -1.42961251293246e+00 
15 2.03416371934530e+04 -9.89539648814258e+03 1.38868113855945e+04 2.50294562125819e+00 -2.45721313385087e+00 
15 -6.47690356544455e+03 1.46321959489717e+04 2.07422165020116e+04 -3.57486336648900e+00 -5.73475200906182e-03 
15 -7.57419283060104e+03 -1.94182902795483e+04 1.62476979228936e+04 2.15825080885150e+00 -2.02983696220752e+00 
15 -1.71371410306626e+04 1.63760390569606e+04 -1.15598340491424e+04 -6.71108911442037e-01 -2.71098862270573e+00 
15 1.31805731248579e+03 2.12549195988641e+04 1.59427262007072e+04 -2.59485699755712e+00 -2.18654286469019e+00 
15 1.58094464453642e+04 -3.85946137632666e+03 -2.01922756661296e+04 2.03914818424396e+00 9.71745114719326e-01 
15 -5.91491615624772e+03 2.56998394660693e+04 -2.15562685370283e+03 -2.32772059710911e+00 3.10480363948714e+00 
15 2.65383432054796e+04 -1.69746002833024e+03 -8.97543718005850e+02 2.11955100847889e-01 3.21367417980723e+00 
END Ephemeris